start=new Date('2022-10-22T00:00:00.000Z').valueOf();
sats=[{"MEAN_ANOMALY":"326.2463","TLE_LINE1":"1 51773U 22017F   22294.82861323  .00000794  00000-0  68016-4 0  9992","BSTAR":"0.00006801600000","OBJECT_NAME":"STARLINK-3624","ARG_OF_PERICENTER":"33.8624","APOAPSIS":"540.823","DECAY_DATE":null,"RCS_SIZE":"LARGE","EPHEMERIS_TYPE":"0","MEAN_ELEMENT_THEORY":"SGP4","PERIOD":"95.439","RA_OF_ASC_NODE":"122.6175","OBJECT_TYPE":"PAYLOAD","GP_ID":"215843521","REF_FRAME":"TEME","MEAN_MOTION_DDOT":"0.0000000000000","EPOCH":"2022-10-21T19:53:12.183072","CLASSIFICATION_TYPE":"U","FILE":"3628413","COUNTRY_CODE":"US","LAUNCH_DATE":"2022-02-25","OBJECT_ID":"2022-017F","ELEMENT_SET_NO":"999","NORAD_CAT_ID":"51773","ECCENTRICITY":"0.00014910","SITE":"AFWTR","INCLINATION":"53.2166","REV_AT_EPOCH":"3618","CENTER_NAME":"EARTH","TLE_LINE2":"2 51773  53.2166 122.6175 0001491  33.8624 326.2463 15.08824961 36181","MEAN_MOTION_DOT":"0.00000794","SEMIMAJOR_AXIS":"6917.926","PERIAPSIS":"538.760","MEAN_MOTION":"15.08824961","TIME_SYSTEM":"UTC"},{"TLE_LINE1":"1 51774U 22017G   22294.61517661  .00000014  00000-0  18980-4 0  9993","MEAN_ANOMALY":"306.4718","BSTAR":"0.00001898000000","OBJECT_NAME":"STARLINK-3629","ARG_OF_PERICENTER":"53.6451","APOAPSIS":"541.045","DECAY_DATE":null,"EPHEMERIS_TYPE":"0","RCS_SIZE":"LARGE","MEAN_ELEMENT_THEORY":"SGP4","PERIOD":"95.437","RA_OF_ASC_NODE":"123.5789","OBJECT_TYPE":"PAYLOAD","GP_ID":"215843770","REF_FRAME":"TEME","EPOCH":"2022-10-21T14:45:51.259104","CLASSIFICATION_TYPE":"U","MEAN_MOTION_DDOT":"0.0000000000000","FILE":"3628413","LAUNCH_DATE":"2022-02-25","COUNTRY_CODE":"US","OBJECT_ID":"2022-017G","SITE":"AFWTR","ECCENTRICITY":"0.00019210","ELEMENT_SET_NO":"999","NORAD_CAT_ID":"51774","INCLINATION":"53.2168","REV_AT_EPOCH":"3611","CENTER_NAME":"EARTH","TLE_LINE2":"2 51774  53.2168 123.5789 0001921  53.6451 306.4718 15.08849448 36114","MEAN_MOTION_DOT":"0.00000014","PERIAPSIS":"538.388","SEMIMAJOR_AXIS":"6917.852","MEAN_MOTION":"15.08849448","TIME_SYSTEM":"UTC"},{"GP_ID":"215844522","RA_OF_ASC_NODE":"122.6453","OBJECT_TYPE":"PAYLOAD","REF_FRAME":"TEME","MEAN_MOTION_DDOT":"0.0000000000000","CLASSIFICATION_TYPE":"U","EPOCH":"2022-10-21T19:47:54.890304","FILE":"3628413","BSTAR":"-0.00004229100000","TLE_LINE1":"1 51775U 22017H   22294.82494086 -.00000961  00000-0 -42291-4 0  9997","MEAN_ANOMALY":"313.5760","OBJECT_NAME":"STARLINK-3620","ARG_OF_PERICENTER":"46.5395","RCS_SIZE":"LARGE","EPHEMERIS_TYPE":"0","APOAPSIS":"541.090","DECAY_DATE":null,"PERIOD":"95.437","MEAN_ELEMENT_THEORY":"SGP4","REV_AT_EPOCH":"3618","TLE_LINE2":"2 51775  53.2176 122.6453 0001963  46.5395 313.5760 15.08844434 36189","CENTER_NAME":"EARTH","MEAN_MOTION_DOT":"-0.00000961","TIME_SYSTEM":"UTC","PERIAPSIS":"538.374","SEMIMAJOR_AXIS":"6917.867","MEAN_MOTION":"15.08844434","OBJECT_ID":"2022-017H","COUNTRY_CODE":"US","LAUNCH_DATE":"2022-02-25","NORAD_CAT_ID":"51775","ELEMENT_SET_NO":"999","ECCENTRICITY":"0.00019630","SITE":"AFWTR","INCLINATION":"53.2176"},{"TLE_LINE2":"2 51776  53.2169 122.7103 0001796  58.4570 301.6598 15.08840377 36141","CENTER_NAME":"EARTH","REV_AT_EPOCH":"3614","TIME_SYSTEM":"UTC","PERIAPSIS":"538.502","SEMIMAJOR_AXIS":"6917.879","MEAN_MOTION":"15.08840377","MEAN_MOTION_DOT":"-0.00001325","OBJECT_ID":"2022-017J","COUNTRY_CODE":"US","LAUNCH_DATE":"2022-02-25","INCLINATION":"53.2169","NORAD_CAT_ID":"51776","ELEMENT_SET_NO":"999","SITE":"AFWTR","ECCENTRICITY":"0.00017960","REF_FRAME":"TEME","GP_ID":"215845272","OBJECT_TYPE":"PAYLOAD","RA_OF_ASC_NODE":"122.7103","FILE":"3628413","MEAN_MOTION_DDOT":"0.0000000000000","EPOCH":"2022-10-21T19:26:43.255968","CLASSIFICATION_TYPE":"U","ARG_OF_PERICENTER":"58.4570","OBJECT_NAME":"STARLINK-3608","BSTAR":"-0.00006519000000","TLE_LINE1":"1 51776U 22017J   22294.81022287 -.00001325  00000-0 -65190-4 0  9995","MEAN_ANOMALY":"301.6598","PERIOD":"95.438","MEAN_ELEMENT_THEORY":"SGP4","EPHEMERIS_TYPE":"0","RCS_SIZE":"LARGE","APOAPSIS":"540.987","DECAY_DATE":null},{"OBJECT_ID":"2022-017K","COUNTRY_CODE":"US","LAUNCH_DATE":"2022-02-25","INCLINATION":"53.2184","NORAD_CAT_ID":"51777","ELEMENT_SET_NO":"999","ECCENTRICITY":"0.00017220","SITE":"AFWTR","TLE_LINE2":"2 51777  53.2184 123.5708 0001722  45.0117 315.1014 15.08839652 36144","CENTER_NAME":"EARTH","REV_AT_EPOCH":"3614","TIME_SYSTEM":"UTC","PERIAPSIS":"538.555","MEAN_MOTION":"15.08839652","SEMIMAJOR_AXIS":"6917.881","MEAN_MOTION_DOT":"-0.00000765","ARG_OF_PERICENTER":"45.0117","OBJECT_NAME":"STARLINK-3625","BSTAR":"-0.00002996300000","MEAN_ANOMALY":"315.1014","TLE_LINE1":"1 51777U 22017K   22294.61886189 -.00000765  00000-0 -29963-4 0  9998","PERIOD":"95.438","MEAN_ELEMENT_THEORY":"SGP4","EPHEMERIS_TYPE":"0","RCS_SIZE":"LARGE","DECAY_DATE":null,"APOAPSIS":"540.938","REF_FRAME":"TEME","GP_ID":"215844021","RA_OF_ASC_NODE":"123.5708","OBJECT_TYPE":"PAYLOAD","FILE":"3628413","MEAN_MOTION_DDOT":"0.0000000000000","CLASSIFICATION_TYPE":"U","EPOCH":"2022-10-21T14:51:09.667296"},{"ARG_OF_PERICENTER":"55.3362","OBJECT_NAME":"STARLINK-3615","TLE_LINE1":"1 51778U 22017L   22294.49930320  .00001246  00000-0  96330-4 0  9997","MEAN_ANOMALY":"304.7815","BSTAR":"0.00009633000000","MEAN_ELEMENT_THEORY":"SGP4","PERIOD":"95.437","APOAPSIS":"541.068","DECAY_DATE":null,"RCS_SIZE":"LARGE","EPHEMERIS_TYPE":"0","REF_FRAME":"TEME","OBJECT_TYPE":"PAYLOAD","RA_OF_ASC_NODE":"114.0984","GP_ID":"215777471","FILE":"3627579","CLASSIFICATION_TYPE":"U","EPOCH":"2022-10-21T11:58:59.796480","MEAN_MOTION_DDOT":"0.0000000000000","LAUNCH_DATE":"2022-02-25","COUNTRY_CODE":"US","OBJECT_ID":"2022-017L","INCLINATION":"53.2158","SITE":"AFWTR","ECCENTRICITY":"0.00019730","NORAD_CAT_ID":"51778","ELEMENT_SET_NO":"999","CENTER_NAME":"EARTH","TLE_LINE2":"2 51778  53.2158 114.0984 0001973  55.3362 304.7815 15.08853876 36081","REV_AT_EPOCH":"3608","SEMIMAJOR_AXIS":"6917.838","PERIAPSIS":"538.338","MEAN_MOTION":"15.08853876","TIME_SYSTEM":"UTC","MEAN_MOTION_DOT":"0.00001246"},{"TIME_SYSTEM":"UTC","SEMIMAJOR_AXIS":"6917.878","PERIAPSIS":"538.429","MEAN_MOTION":"15.08840811","MEAN_MOTION_DOT":"-0.00000225","TLE_LINE2":"2 51779  53.2189 122.7329 0001900  45.8337 314.2811 15.08840811 36145","CENTER_NAME":"EARTH","REV_AT_EPOCH":"3614","INCLINATION":"53.2189","SITE":"AFWTR","ECCENTRICITY":"0.00019000","ELEMENT_SET_NO":"999","NORAD_CAT_ID":"51779","OBJECT_ID":"2022-017M","LAUNCH_DATE":"2022-02-25","COUNTRY_CODE":"US","FILE":"3628413","CLASSIFICATION_TYPE":"U","EPOCH":"2022-10-21T19:21:24.948864","MEAN_MOTION_DDOT":"0.0000000000000","REF_FRAME":"TEME","GP_ID":"215845022","RA_OF_ASC_NODE":"122.7329","OBJECT_TYPE":"PAYLOAD","PERIOD":"95.438","MEAN_ELEMENT_THEORY":"SGP4","EPHEMERIS_TYPE":"0","RCS_SIZE":"LARGE","APOAPSIS":"541.057","DECAY_DATE":null,"ARG_OF_PERICENTER":"45.8337","OBJECT_NAME":"STARLINK-3611","BSTAR":"0.00000396470000","TLE_LINE1":"1 51779U 22017M   22294.80653876 -.00000225  00000-0  39647-5 0  9997","MEAN_ANOMALY":"314.2811"},{"CENTER_NAME":"EARTH","TLE_LINE2":"2 51780  53.2165 122.7835 0001556  73.1219 286.9944 15.08837274 35996","REV_AT_EPOCH":"3599","SEMIMAJOR_AXIS":"6917.889","PERIAPSIS":"538.677","MEAN_MOTION":"15.08837274","TIME_SYSTEM":"UTC","MEAN_MOTION_DOT":"0.00000568","COUNTRY_CODE":"US","LAUNCH_DATE":"2022-02-25","OBJECT_ID":"2022-017N","INCLINATION":"53.2165","NORAD_CAT_ID":"51780","ELEMENT_SET_NO":"999","SITE":"AFWTR","ECCENTRICITY":"0.00015560","REF_FRAME":"TEME","OBJECT_TYPE":"PAYLOAD","RA_OF_ASC_NODE":"122.7835","GP_ID":"215844773","FILE":"3628413","MEAN_MOTION_DDOT":"0.0000000000000","CLASSIFICATION_TYPE":"U","EPOCH":"2022-10-21T19:06:54.670176","ARG_OF_PERICENTER":"73.1219","OBJECT_NAME":"STARLINK-3617","MEAN_ANOMALY":"286.9944","TLE_LINE1":"1 51780U 22017N   22294.79646609  .00000568  00000-0  53769-4 0  9992","BSTAR":"0.00005376900000","MEAN_ELEMENT_THEORY":"SGP4","PERIOD":"95.438","APOAPSIS":"540.830","DECAY_DATE":null,"EPHEMERIS_TYPE":"0","RCS_SIZE":"LARGE"},{"MEAN_MOTION_DOT":"-0.00004916","PERIAPSIS":"538.230","MEAN_MOTION":"15.08870980","SEMIMAJOR_AXIS":"6917.786","TIME_SYSTEM":"UTC","REV_AT_EPOCH":"3598","CENTER_NAME":"EARTH","TLE_LINE2":"2 51781  53.2176 123.0463 0002054  44.6080 315.5077 15.08870980 35989","SITE":"AFWTR","ECCENTRICITY":"0.00020540","ELEMENT_SET_NO":"999","NORAD_CAT_ID":"51781","INCLINATION":"53.2176","LAUNCH_DATE":"2022-02-25","COUNTRY_CODE":"US","OBJECT_ID":"2022-017P","EPOCH":"2022-10-21T17:40:43.158432","CLASSIFICATION_TYPE":"U","MEAN_MOTION_DDOT":"0.0000000000000","FILE":"3628413","OBJECT_TYPE":"PAYLOAD","RA_OF_ASC_NODE":"123.0463","GP_ID":"215843522","REF_FRAME":"TEME","APOAPSIS":"541.072","DECAY_DATE":null,"RCS_SIZE":"LARGE","EPHEMERIS_TYPE":"0","MEAN_ELEMENT_THEORY":"SGP4","PERIOD":"95.436","TLE_LINE1":"1 51781U 22017P   22294.73661063 -.00004916  00000-0 -29070-3 0  9998","MEAN_ANOMALY":"315.5077","BSTAR":"-0.00029070000000","OBJECT_NAME":"STARLINK-3580","ARG_OF_PERICENTER":"44.6080"},{"REV_AT_EPOCH":"3576","CENTER_NAME":"EARTH","TLE_LINE2":"2 51782  53.2155 132.6531 0001851  52.4565 307.6595 15.08841768 35763","MEAN_MOTION_DOT":"0.00001006","PERIAPSIS":"538.459","SEMIMAJOR_AXIS":"6917.875","MEAN_MOTION":"15.08841768","TIME_SYSTEM":"UTC","COUNTRY_CODE":"US","LAUNCH_DATE":"2022-02-25","OBJECT_ID":"2022-017Q","ELEMENT_SET_NO":"999","NORAD_CAT_ID":"51782","SITE":"AFWTR","ECCENTRICITY":"0.00018510","INCLINATION":"53.2155","OBJECT_TYPE":"PAYLOAD","RA_OF_ASC_NODE":"132.6531","GP_ID":"215843771","REF_FRAME":"TEME","MEAN_MOTION_DDOT":"0.0000000000000","CLASSIFICATION_TYPE":"U","EPOCH":"2022-10-21T19:41:18.098304","FILE":"3628413","TLE_LINE1":"1 51782U 22017Q   22294.82034836  .00001006  00000-0  81314-4 0  9996","MEAN_ANOMALY":"307.6595","BSTAR":"0.00008131400000","ARG_OF_PERICENTER":"52.4565","OBJECT_NAME":"STARLINK-3616","APOAPSIS":"541.020","DECAY_DATE":null,"RCS_SIZE":"LARGE","EPHEMERIS_TYPE":"0","MEAN_ELEMENT_THEORY":"SGP4","PERIOD":"95.437"}];
